{"type": "FeatureCollection", "features": [ {"type": "Feature", "properties": {"norad_id": 66478, "name": "STARLINK-35283", "group": "last-30-days", "lat": -36.202048070363034, "lon": 73.63957108203125, "alt_km": 389.9335774200199, "timestamp": "2025-12-03T10:52:56.221900+00:00", "meta": {"OBJECT_NAME": "STARLINK-35283", "OBJECT_ID": "2025-262Y", "EPOCH": "2025-12-03T04:00:01.998720", "MEAN_MOTION": 15.61259137, "ECCENTRICITY": 0.0001492, "INCLINATION": 42.9995, "RA_OF_ASC_NODE": 127.1089, "ARG_OF_PERICENTER": 275.6628, "MEAN_ANOMALY": 211.4683, "EPHEMERIS_TYPE": 0, "CLASSIFICATION_TYPE": "U", "NORAD_CAT_ID": 66478, "ELEMENT_SET_NO": 999, "REV_AT_EPOCH": 410, "BSTAR": -0.028014, "MEAN_MOTION_DOT": -0.02168897, "MEAN_MOTION_DDOT": 0}, "tle": {"line1": "1 66478U 25262Y   25337.16668980 -.02168897  00000+0 -28014-1 0  9990", "line2": "2 66478  42.9995 127.1089 0001492 275.6628 211.4683 15.61259137  4101"}}, "geometry": {"type": "Point", "coordinates": [73.63957108203125, -36.202048070363034]}}, {"type": "Feature", "properties": {"norad_id": 66479, "name": "STARLINK-35581", "group": "last-30-days", "lat": -37.73951897427503, "lon": 69.2529957952901, "alt_km": 389.96225439522823, "timestamp": "2025-12-03T10:52:56.221912+00:00", "meta": {"OBJECT_NAME": "STARLINK-35581", "OBJECT_ID": "2025-262Z", "EPOCH": "2025-12-03T04:00:01.998720", "MEAN_MOTION": 15.61253854, "ECCENTRICITY": 0.0001439, "INCLINATION": 42.9995, "RA_OF_ASC_NODE": 127.118, "ARG_OF_PERICENTER": 283.8398, "MEAN_ANOMALY": 199.4603, "EPHEMERIS_TYPE": 0, "CLASSIFICATION_TYPE": "U", "NORAD_CAT_ID": 66479, "ELEMENT_SET_NO": 999, "REV_AT_EPOCH": 410, "BSTAR": -0.027919, "MEAN_MOTION_DOT": -0.02161965, "MEAN_MOTION_DDOT": 0}, "tle": {"line1": "1 66479U 25262Z   25337.16668980 -.02161965  00000+0 -27919-1 0  9993", "line2": "2 66479  42.9995 127.1180 0001439 283.8398 199.4603 15.61253854  4107"}}, "geometry": {"type": "Point", "coordinates": [69.2529957952901, -37.73951897427503]}}, {"type": "Feature", "properties": {"norad_id": 66480, "name": "STARLINK-35670", "group": "last-30-days", "lat": -35.37457753077563, "lon": 75.76491469473241, "alt_km": 389.96612410611397, "timestamp": "2025-12-03T10:52:56.221923+00:00", "meta": {"OBJECT_NAME": "STARLINK-35670", "OBJECT_ID": "2025-262AA", "EPOCH": "2025-12-03T04:00:01.998720", "MEAN_MOTION": 15.61261756, "ECCENTRICITY": 0.0001356, "INCLINATION": 42.9993, "RA_OF_ASC_NODE": 127.1038, "ARG_OF_PERICENTER": 279.2954, "MEAN_ANOMALY": 209.7547, "EPHEMERIS_TYPE": 0, "CLASSIFICATION_TYPE": "U", "NORAD_CAT_ID": 66480, "ELEMENT_SET_NO": 999, "REV_AT_EPOCH": 410, "BSTAR": -0.028091, "MEAN_MOTION_DOT": -0.02174292, "MEAN_MOTION_DDOT": 0}, "tle": {"line1": "1 66480U 25262AA  25337.16668980 -.02174292  00000+0 -28091-1 0  9994", "line2": "2 66480  42.9993 127.1038 0001356 279.2954 209.7547 15.61261756  4106"}}, "geometry": {"type": "Point", "coordinates": [75.76491469473241, -35.37457753077563]}}, {"type": "Feature", "properties": {"norad_id": 66481, "name": "STARLINK-35698", "group": "last-30-days", "lat": -34.51252475011589, "lon": 77.84091691798754, "alt_km": 389.8631887327856, "timestamp": "2025-12-03T10:52:56.221933+00:00", "meta": {"OBJECT_NAME": "STARLINK-35698", "OBJECT_ID": "2025-262AB", "EPOCH": "2025-12-03T04:00:01.998720", "MEAN_MOTION": 15.61257964, "ECCENTRICITY": 0.0001403, "INCLINATION": 42.9991, "RA_OF_ASC_NODE": 127.0983, "ARG_OF_PERICENTER": 283.7372, "MEAN_ANOMALY": 207.2295, "EPHEMERIS_TYPE": 0, "CLASSIFICATION_TYPE": "U", "NORAD_CAT_ID": 66481, "ELEMENT_SET_NO": 999, "REV_AT_EPOCH": 410, "BSTAR": -0.028005, "MEAN_MOTION_DOT": -0.02168109, "MEAN_MOTION_DDOT": 0}, "tle": {"line1": "1 66481U 25262AB  25337.16668980 -.02168109  00000+0 -28005-1 0  9990", "line2": "2 66481  42.9991 127.0983 0001403 283.7372 207.2295 15.61257964  4109"}}, "geometry": {"type": "Point", "coordinates": [77.84091691798754, -34.51252475011589]}}, {"type": "Feature", "properties": {"norad_id": 66482, "name": "STARLINK-35648", "group": "last-30-days", "lat": -33.613085028301, "lon": 79.88080013620996, "alt_km": 389.9575128084325, "timestamp": "2025-12-03T10:52:56.221943+00:00", "meta": {"OBJECT_NAME": "STARLINK-35648", "OBJECT_ID": "2025-262AC", "EPOCH": "2025-12-03T04:00:01.998720", "MEAN_MOTION": 15.61257807, "ECCENTRICITY": 0.0001269, "INCLINATION": 42.9991, "RA_OF_ASC_NODE": 127.0935, "ARG_OF_PERICENTER": 279.2381, "MEAN_ANOMALY": 213.6472, "EPHEMERIS_TYPE": 0, "CLASSIFICATION_TYPE": "U", "NORAD_CAT_ID": 66482, "ELEMENT_SET_NO": 999, "REV_AT_EPOCH": 394, "BSTAR": -0.027998, "MEAN_MOTION_DOT": -0.02167505, "MEAN_MOTION_DDOT": 0}, "tle": {"line1": "1 66482U 25262AC  25337.16668980 -.02167505  00000+0 -27998-1 0  9990", "line2": "2 66482  42.9991 127.0935 0001269 279.2381 213.6472 15.61257807  3942"}}, "geometry": {"type": "Point", "coordinates": [79.88080013620996, -33.613085028301]}}, {"type": "Feature", "properties": {"norad_id": 66483, "name": "STARLINK-35654", "group": "last-30-days", "lat": -32.68233362565285, "lon": 81.87409015301259, "alt_km": 389.8339245904017, "timestamp": "2025-12-03T10:52:56.221953+00:00", "meta": {"OBJECT_NAME": "STARLINK-35654", "OBJECT_ID": "2025-262AD", "EPOCH": "2025-12-03T04:00:01.998720", "MEAN_MOTION": 15.61255599, "ECCENTRICITY": 0.000143, "INCLINATION": 42.9993, "RA_OF_ASC_NODE": 127.0881, "ARG_OF_PERICENTER": 277.6417, "MEAN_ANOMALY": 217.1603, "EPHEMERIS_TYPE": 0, "CLASSIFICATION_TYPE": "U", "NORAD_CAT_ID": 66483, "ELEMENT_SET_NO": 999, "REV_AT_EPOCH": 410, "BSTAR": -0.02796, "MEAN_MOTION_DOT": -0.02164891, "MEAN_MOTION_DDOT": 0}, "tle": {"line1": "1 66483U 25262AD  25337.16668980 -.02164891  00000+0 -27960-1 0  9995", "line2": "2 66483  42.9993 127.0881 0001430 277.6417 217.1603 15.61255599  4107"}}, "geometry": {"type": "Point", "coordinates": [81.87409015301259, -32.68233362565285]}}, {"type": "Feature", "properties": {"norad_id": 66484, "name": "STARLINK-35371", "group": "last-30-days", "lat": -31.721340311297794, "lon": 83.82558758160252, "alt_km": 389.8536199651662, "timestamp": "2025-12-03T10:52:56.221964+00:00", "meta": {"OBJECT_NAME": "STARLINK-35371", "OBJECT_ID": "2025-262AE", "EPOCH": "2025-12-03T04:00:01.998720", "MEAN_MOTION": 15.6126138, "ECCENTRICITY": 0.0001331, "INCLINATION": 42.9995, "RA_OF_ASC_NODE": 127.0844, "ARG_OF_PERICENTER": 277.2188, "MEAN_ANOMALY": 219.4937, "EPHEMERIS_TYPE": 0, "CLASSIFICATION_TYPE": "U", "NORAD_CAT_ID": 66484, "ELEMENT_SET_NO": 999, "REV_AT_EPOCH": 410, "BSTAR": -0.027998, "MEAN_MOTION_DOT": -0.02167868, "MEAN_MOTION_DDOT": 0}, "tle": {"line1": "1 66484U 25262AE  25337.16668980 -.02167868  00000+0 -27998-1 0  9994", "line2": "2 66484  42.9995 127.0844 0001331 277.2188 219.4937 15.61261380  4100"}}, "geometry": {"type": "Point", "coordinates": [83.82558758160252, -31.721340311297794]}}, {"type": "Feature", "properties": {"norad_id": 66485, "name": "STARLINK-34774", "group": "last-30-days", "lat": 26.00171275216345, "lon": -148.5066943391618, "alt_km": 350.97285336729874, "timestamp": "2025-12-03T10:52:56.221974+00:00", "meta": {"OBJECT_NAME": "STARLINK-34774", "OBJECT_ID": "2025-263A", "EPOCH": "2025-12-03T04:00:01.998720", "MEAN_MOTION": 15.72807287, "ECCENTRICITY": 0.0001499, "INCLINATION": 42.9991, "RA_OF_ASC_NODE": 181.6609, "ARG_OF_PERICENTER": 272.9807, "MEAN_ANOMALY": 302.2083, "EPHEMERIS_TYPE": 0, "CLASSIFICATION_TYPE": "U", "NORAD_CAT_ID": 66485, "ELEMENT_SET_NO": 999, "REV_AT_EPOCH": 409, "BSTAR": -0.016079, "MEAN_MOTION_DOT": -0.01982253, "MEAN_MOTION_DDOT": 0}, "tle": {"line1": "1 66485U 25263A   25337.16668980 -.01982253  00000+0 -16079-1 0  9996", "line2": "2 66485  42.9991 181.6609 0001499 272.9807 302.2083 15.72807287  4092"}}, "geometry": {"type": "Point", "coordinates": [-148.5066943391618, 26.00171275216345]}}, {"type": "Feature", "properties": {"norad_id": 66486, "name": "STARLINK-34844", "group": "last-30-days", "lat": 27.104604115061456, "lon": -146.75927202490274, "alt_km": 350.9115997723011, "timestamp": "2025-12-03T10:52:56.221988+00:00", "meta": {"OBJECT_NAME": "STARLINK-34844", "OBJECT_ID": "2025-263B", "EPOCH": "2025-12-03T04:00:01.998720", "MEAN_MOTION": 15.72807726, "ECCENTRICITY": 0.0001393, "INCLINATION": 42.999, "RA_OF_ASC_NODE": 181.6553, "ARG_OF_PERICENTER": 265.0755, "MEAN_ANOMALY": 312.0314, "EPHEMERIS_TYPE": 0, "CLASSIFICATION_TYPE": "U", "NORAD_CAT_ID": 66486, "ELEMENT_SET_NO": 999, "REV_AT_EPOCH": 404, "BSTAR": -0.016081, "MEAN_MOTION_DOT": -0.01982339, "MEAN_MOTION_DDOT": 0}, "tle": {"line1": "1 66486U 25263B   25337.16668980 -.01982339  00000+0 -16081-1 0  9995", "line2": "2 66486  42.9990 181.6553 0001393 265.0755 312.0314 15.72807726  4047"}}, "geometry": {"type": "Point", "coordinates": [-146.75927202490274, 27.104604115061456]}}, {"type": "Feature", "properties": {"norad_id": 66487, "name": "STARLINK-34733", "group": "last-30-days", "lat": 28.22399573158208, "lon": -144.91055418208356, "alt_km": 350.34980445220936, "timestamp": "2025-12-03T10:52:56.222001+00:00", "meta": {"OBJECT_NAME": "STARLINK-34733", "OBJECT_ID": "2025-263C", "EPOCH": "2025-12-02T16:00:03.000096", "MEAN_MOTION": 15.74920982, "ECCENTRICITY": 0.00013354, "INCLINATION": 42.9988, "RA_OF_ASC_NODE": 184.6793, "ARG_OF_PERICENTER": 270.3137, "MEAN_ANOMALY": 352.4112, "EPHEMERIS_TYPE": 0, "CLASSIFICATION_TYPE": "U", "NORAD_CAT_ID": 66487, "ELEMENT_SET_NO": 999, "REV_AT_EPOCH": 401, "BSTAR": -0.014571911, "MEAN_MOTION_DOT": -0.01931434, "MEAN_MOTION_DDOT": 0}, "tle": {"line1": "1 66487U 25263C   25336.66670139 -.01931434  00000+0 -14572-1 0  9992", "line2": "2 66487  42.9988 184.6793 0001335 270.3137 352.4112 15.74920982  4016"}}, "geometry": {"type": "Point", "coordinates": [-144.91055418208356, 28.22399573158208]}}]}